[{"OBJECT_NAME":"TRANSPORTER-11 OBJECT AU","OBJECT_ID":"2024-149AU","EPOCH":"2026-03-15T05:26:58.153344","MEAN_MOTION":15.3744572,"ECCENTRICITY":0.00025183,"INCLINATION":97.3767,"RA_OF_ASC_NODE":157.3815,"ARG_OF_PERICENTER":257.987,"MEAN_ANOMALY":102.1092,"EPHEMERIS_TYPE":0,"CLASSIFICATION_TYPE":"U","NORAD_CAT_ID":60510,"ELEMENT_SET_NO":999,"REV_AT_EPOCH":8786,"BSTAR":0.00052202413,"MEAN_MOTION_DOT":0.00019111,"MEAN_MOTION_DDOT":0},{"OBJECT_NAME":"FLOCK 4BE-2","OBJECT_ID":"2024-149AV","EPOCH":"2026-03-15T06:28:21.216000","MEAN_MOTION":15.43796766,"ECCENTRICITY":0.00031918,"INCLINATION":97.3847,"RA_OF_ASC_NODE":159.5582,"ARG_OF_PERICENTER":245.8132,"MEAN_ANOMALY":114.2783,"EPHEMERIS_TYPE":0,"CLASSIFICATION_TYPE":"U","NORAD_CAT_ID":60511,"ELEMENT_SET_NO":999,"REV_AT_EPOCH":8797,"BSTAR":0.0010898317,"MEAN_MOTION_DOT":0.00049499,"MEAN_MOTION_DDOT":0},{"OBJECT_NAME":"FLOCK 4BE-13","OBJECT_ID":"2024-149AW","EPOCH":"2026-03-15T05:35:41.624160","MEAN_MOTION":15.39074805,"ECCENTRICITY":0.00035093,"INCLINATION":97.3753,"RA_OF_ASC_NODE":157.8507,"ARG_OF_PERICENTER":239.2841,"MEAN_ANOMALY":120.8059,"EPHEMERIS_TYPE":0,"CLASSIFICATION_TYPE":"U","NORAD_CAT_ID":60512,"ELEMENT_SET_NO":999,"REV_AT_EPOCH":8790,"BSTAR":0.00053221446,"MEAN_MOTION_DOT":0.00020551,"MEAN_MOTION_DDOT":0},{"OBJECT_NAME":"FLOCK 4BE-27","OBJECT_ID":"2024-149AX","EPOCH":"2026-03-15T04:08:08.209536","MEAN_MOTION":15.32724615,"ECCENTRICITY":0.00026378,"INCLINATION":97.3865,"RA_OF_ASC_NODE":156.0882,"ARG_OF_PERICENTER":276.7667,"MEAN_ANOMALY":83.3275,"EPHEMERIS_TYPE":0,"CLASSIFICATION_TYPE":"U","NORAD_CAT_ID":60513,"ELEMENT_SET_NO":999,"REV_AT_EPOCH":8773,"BSTAR":0.00039489628,"MEAN_MOTION_DOT":0.00012409,"MEAN_MOTION_DDOT":0},{"OBJECT_NAME":"FLOCK 4BE-9","OBJECT_ID":"2024-149AY","EPOCH":"2026-03-15T05:21:15.165216","MEAN_MOTION":15.37811487,"ECCENTRICITY":0.00017145,"INCLINATION":97.3828,"RA_OF_ASC_NODE":157.7839,"ARG_OF_PERICENTER":256.4433,"MEAN_ANOMALY":103.6621,"EPHEMERIS_TYPE":0,"CLASSIFICATION_TYPE":"U","NORAD_CAT_ID":60514,"ELEMENT_SET_NO":999,"REV_AT_EPOCH":8786,"BSTAR":0.00054112998,"MEAN_MOTION_DOT":0.00020051,"MEAN_MOTION_DDOT":0},{"OBJECT_NAME":"FLOCK 4BE-8","OBJECT_ID":"2024-149AZ","EPOCH":"2026-03-15T05:38:30.922368","MEAN_MOTION":15.83797748,"ECCENTRICITY":0.00057211,"INCLINATION":97.3657,"RA_OF_ASC_NODE":161.4304,"ARG_OF_PERICENTER":264.2902,"MEAN_ANOMALY":95.7716,"EPHEMERIS_TYPE":0,"CLASSIFICATION_TYPE":"U","NORAD_CAT_ID":60515,"ELEMENT_SET_NO":999,"REV_AT_EPOCH":8813,"BSTAR":0.002105117,"MEAN_MOTION_DOT":0.00489723,"MEAN_MOTION_DDOT":0},{"OBJECT_NAME":"FLOCK 4BE-6","OBJECT_ID":"2024-149BA","EPOCH":"2026-03-15T04:26:37.146624","MEAN_MOTION":15.36828009,"ECCENTRICITY":0.00024752,"INCLINATION":97.3828,"RA_OF_ASC_NODE":157.2623,"ARG_OF_PERICENTER":258.8286,"MEAN_ANOMALY":101.268,"EPHEMERIS_TYPE":0,"CLASSIFICATION_TYPE":"U","NORAD_CAT_ID":60516,"ELEMENT_SET_NO":999,"REV_AT_EPOCH":8782,"BSTAR":0.00053141472,"MEAN_MOTION_DOT":0.00019072,"MEAN_MOTION_DDOT":0},{"OBJECT_NAME":"FLOCK 4BE-14","OBJECT_ID":"2024-149BB","EPOCH":"2026-03-15T04:19:07.612608","MEAN_MOTION":15.37905599,"ECCENTRICITY":0.00033502,"INCLINATION":97.3731,"RA_OF_ASC_NODE":157.3317,"ARG_OF_PERICENTER":260.5251,"MEAN_ANOMALY":99.5615,"EPHEMERIS_TYPE":0,"CLASSIFICATION_TYPE":"U","NORAD_CAT_ID":60517,"ELEMENT_SET_NO":999,"REV_AT_EPOCH":8786,"BSTAR":0.00055063406,"MEAN_MOTION_DOT":0.00020471,"MEAN_MOTION_DDOT":0},{"OBJECT_NAME":"FLOCK 4BE-1","OBJECT_ID":"2024-149BC","EPOCH":"2026-03-15T05:19:32.017440","MEAN_MOTION":15.3923144,"ECCENTRICITY":0.0003351,"INCLINATION":97.3814,"RA_OF_ASC_NODE":158.3348,"ARG_OF_PERICENTER":257.976,"MEAN_ANOMALY":102.111,"EPHEMERIS_TYPE":0,"CLASSIFICATION_TYPE":"U","NORAD_CAT_ID":60518,"ELEMENT_SET_NO":999,"REV_AT_EPOCH":8790,"BSTAR":0.00057546284,"MEAN_MOTION_DOT":0.00022347,"MEAN_MOTION_DDOT":0},{"OBJECT_NAME":"FLOCK 4BE-28","OBJECT_ID":"2024-149BD","EPOCH":"2026-03-15T04:13:15.779712","MEAN_MOTION":15.41299079,"ECCENTRICITY":0.00035149,"INCLINATION":97.3776,"RA_OF_ASC_NODE":158.7381,"ARG_OF_PERICENTER":260.3348,"MEAN_ANOMALY":99.7502,"EPHEMERIS_TYPE":0,"CLASSIFICATION_TYPE":"U","NORAD_CAT_ID":60519,"ELEMENT_SET_NO":999,"REV_AT_EPOCH":8794,"BSTAR":0.0006186242,"MEAN_MOTION_DOT":0.00025734,"MEAN_MOTION_DDOT":0},{"OBJECT_NAME":"IPERDRONE.0","OBJECT_ID":"2024-149BE","EPOCH":"2026-03-15T04:26:21.122016","MEAN_MOTION":15.5535467,"ECCENTRICITY":0.00034063,"INCLINATION":97.3811,"RA_OF_ASC_NODE":163.6167,"ARG_OF_PERICENTER":215.0874,"MEAN_ANOMALY":145.0156,"EPHEMERIS_TYPE":0,"CLASSIFICATION_TYPE":"U","NORAD_CAT_ID":60520,"ELEMENT_SET_NO":999,"REV_AT_EPOCH":8825,"BSTAR":0.00082795344,"MEAN_MOTION_DOT":0.00056451,"MEAN_MOTION_DDOT":0},{"OBJECT_NAME":"TRANSPORTER-11 OBJECT BF","OBJECT_ID":"2024-149BF","EPOCH":"2026-03-15T05:21:09.197568","MEAN_MOTION":15.60963456,"ECCENTRICITY":0.00037781,"INCLINATION":97.382,"RA_OF_ASC_NODE":164.9169,"ARG_OF_PERICENTER":219.4388,"MEAN_ANOMALY":140.6595,"EPHEMERIS_TYPE":0,"CLASSIFICATION_TYPE":"U","NORAD_CAT_ID":60521,"ELEMENT_SET_NO":999,"REV_AT_EPOCH":8833,"BSTAR":0.0010411819,"MEAN_MOTION_DOT":0.00087951,"MEAN_MOTION_DDOT":0},{"OBJECT_NAME":"CONNECTA IOT-2","OBJECT_ID":"2024-149BG","EPOCH":"2026-03-15T04:40:03.756288","MEAN_MOTION":15.23088533,"ECCENTRICITY":0.00050126,"INCLINATION":97.3886,"RA_OF_ASC_NODE":153.8093,"ARG_OF_PERICENTER":301.4975,"MEAN_ANOMALY":58.5772,"EPHEMERIS_TYPE":0,"CLASSIFICATION_TYPE":"U","NORAD_CAT_ID":60522,"ELEMENT_SET_NO":999,"REV_AT_EPOCH":8758,"BSTAR":0.00024781229,"MEAN_MOTION_DOT":5.774e-5,"MEAN_MOTION_DDOT":0},{"OBJECT_NAME":"PTD-R (TYVAK-0127)","OBJECT_ID":"2024-149BH","EPOCH":"2026-03-15T05:29:47.310720","MEAN_MOTION":15.71547162,"ECCENTRICITY":0.00045328,"INCLINATION":97.3756,"RA_OF_ASC_NODE":167.7844,"ARG_OF_PERICENTER":237.1044,"MEAN_ANOMALY":122.9783,"EPHEMERIS_TYPE":0,"CLASSIFICATION_TYPE":"U","NORAD_CAT_ID":60523,"ELEMENT_SET_NO":999,"REV_AT_EPOCH":8854,"BSTAR":0.0012754577,"MEAN_MOTION_DOT":0.00166111,"MEAN_MOTION_DDOT":0},{"OBJECT_NAME":"CONNECTA IOT-4","OBJECT_ID":"2024-149BJ","EPOCH":"2026-03-15T05:03:32.813280","MEAN_MOTION":15.38685383,"ECCENTRICITY":0.00047031,"INCLINATION":97.3834,"RA_OF_ASC_NODE":157.7089,"ARG_OF_PERICENTER":263.8574,"MEAN_ANOMALY":96.2135,"EPHEMERIS_TYPE":0,"CLASSIFICATION_TYPE":"U","NORAD_CAT_ID":60524,"ELEMENT_SET_NO":999,"REV_AT_EPOCH":8786,"BSTAR":0.00057140047,"MEAN_MOTION_DOT":0.00021799,"MEAN_MOTION_DDOT":0},{"OBJECT_NAME":"ORESAT0.5","OBJECT_ID":"2024-149BK","EPOCH":"2026-03-15T05:33:11.090304","MEAN_MOTION":15.41415126,"ECCENTRICITY":0.00047464,"INCLINATION":97.3755,"RA_OF_ASC_NODE":159.0459,"ARG_OF_PERICENTER":249.9163,"MEAN_ANOMALY":110.1573,"EPHEMERIS_TYPE":0,"CLASSIFICATION_TYPE":"U","NORAD_CAT_ID":60525,"ELEMENT_SET_NO":999,"REV_AT_EPOCH":8798,"BSTAR":0.00055752726,"MEAN_MOTION_DOT":0.0002327,"MEAN_MOTION_DDOT":0}]
