TRANSPORTER-11 OBJECT AU
1 60510U 24149AU  26074.22706196  .00019111  00000+0  52202-3 0  9990
2 60510  97.3767 157.3815 0002518 257.9870 102.1092 15.37445720 87869
FLOCK 4BE-2             
1 60511U 24149AV  26074.26969000  .00049499  00000+0  10898-2 0  9996
2 60511  97.3847 159.5582 0003191 245.8132 114.2783 15.43796766 87978
FLOCK 4BE-13            
1 60512U 24149AW  26074.23312065  .00020551  00000+0  53221-3 0  9993
2 60512  97.3753 157.8507 0003509 239.2841 120.8059 15.39074805 87900
FLOCK 4BE-27            
1 60513U 24149AX  26074.17231724  .00012409  00000+0  39490-3 0  9994
2 60513  97.3865 156.0882 0002637 276.7667  83.3275 15.32724615 87733
FLOCK 4BE-9             
1 60514U 24149AY  26074.22309219  .00020051  00000+0  54113-3 0  9997
2 60514  97.3828 157.7839 0001714 256.4433 103.6621 15.37811487 87868
FLOCK 4BE-8             
1 60515U 24149AZ  26074.23508012  .00489723  00000+0  21051-2 0  9990
2 60515  97.3657 161.4304 0005721 264.2902  95.7716 15.83797748 88139
FLOCK 4BE-6             
1 60516U 24149BA  26074.18515216  .00019072  00000+0  53141-3 0  9991
2 60516  97.3828 157.2623 0002475 258.8286 101.2680 15.36828009 87825
FLOCK 4BE-14            
1 60517U 24149BB  26074.17994922  .00020471  00000+0  55063-3 0  9996
2 60517  97.3731 157.3317 0003350 260.5251  99.5615 15.37905599 87867
FLOCK 4BE-1             
1 60518U 24149BC  26074.22189835  .00022347  00000+0  57546-3 0  9994
2 60518  97.3814 158.3348 0003351 257.9760 102.1110 15.39231440 87906
FLOCK 4BE-28            
1 60519U 24149BD  26074.17587708  .00025734  00000+0  61862-3 0  9999
2 60519  97.3776 158.7381 0003514 260.3348  99.7502 15.41299079 87941
IPERDRONE.0             
1 60520U 24149BE  26074.18496669  .00056451  00000+0  82795-3 0  9995
2 60520  97.3811 163.6167 0003406 215.0874 145.0156 15.55354670 88250
TRANSPORTER-11 OBJECT BF
1 60521U 24149BF  26074.22302312  .00087951  00000+0  10412-2 0  9997
2 60521  97.3820 164.9169 0003778 219.4388 140.6595 15.60963456 88338
CONNECTA IOT-2          
1 60522U 24149BG  26074.19448792  .00005774  00000+0  24781-3 0  9995
2 60522  97.3886 153.8093 0005012 301.4975  58.5772 15.23088533 87584
PTD-R (TYVAK-0127)      
1 60523U 24149BH  26074.22901980  .00166111  00000+0  12755-2 0  9993
2 60523  97.3756 167.7844 0004532 237.1044 122.9783 15.71547162 88543
CONNECTA IOT-4          
1 60524U 24149BJ  26074.21079645  .00021799  00000+0  57140-3 0  9997
2 60524  97.3834 157.7089 0004703 263.8574  96.2135 15.38685383 87864
ORESAT0.5               
1 60525U 24149BK  26074.23137836  .00023270  00000+0  55753-3 0  9991
2 60525  97.3755 159.0459 0004746 249.9163 110.1573 15.41415126 87984
